NORAD_CAT_ID,OBJECT_NAME,OBJECT_TYPE,EPOCH,MEAN_MOTION,ECCENTRICITY,INCLINATION,RA_OF_ASC_NODE,ARG_OF_PERICENTER,MEAN_ANOMALY,BSTAR,MEAN_MOTION_DOT,MEAN_MOTION_DDOT,TLE_LINE0,TLE_LINE1,TLE_LINE2,SEMIMAJOR_AXIS,PERIOD,APOGEE,PERIGEE,DECAYED
54066.0,STARLINK-5151,PAYLOAD,2022-12-22 15:10:03,15.08820826,0.0001601,53.2167,210.0699,58.4188,301.6961,7.4457e-05,8.97e-06,0.0,0 STARLINK-5151,1 54066U 22136R   22356.63198821  .00000897  00000-0  74457-4 0  9996,2 54066  53.2167 210.0699 0001601  58.4188 301.6961 15.08820826  9753,6917.939,95.439,540.9119999999998,538.696,0.0
54066.0,STARLINK-5151,PAYLOAD,2022-12-22 23:06:59,15.08825545,0.0001648,53.2167,208.5832,58.9154,301.1999,0.00010929,1.451e-05,0.0,0 STARLINK-5151,1 54066U 22136R   22356.96318881  .00001451  00000-0  10929-3 0  9992,2 54066  53.2167 208.5832 0001648  58.9154 301.1999 15.08825545 10282,6917.925,95.438,540.93,538.649,0.0
54066.0,STARLINK-5151,PAYLOAD,2022-12-23 07:03:55,15.08828707,0.0001654,53.2168,207.0963,59.6615,300.454,0.0001273,1.738e-05,0.0,0 STARLINK-5151,1 54066U 22136R   22357.29438931  .00001738  00000-0  12730-3 0  9998,2 54066  53.2168 207.0963 0001654  59.6615 300.4540 15.08828707  9857,6917.915,95.438,540.924,538.636,0.0
54066.0,STARLINK-5151,PAYLOAD,2022-12-23 16:36:14,15.08827256,0.0001648,53.2167,205.3121,56.2678,303.8471,0.00020038,2.901e-05,0.0,0 STARLINK-5151,1 54066U 22136R   22357.69183130  .00002901  00000-0  20038-3 0  9993,2 54066  53.2167 205.3121 0001648  56.2678 303.8471 15.08827256  9913,6917.919,95.438,540.924,538.644,0.0
54066.0,STARLINK-5151,PAYLOAD,2022-12-23 22:57:46,15.08835106,0.0001812,53.2167,204.1231,67.7332,292.3852,0.00018241,2.616e-05,0.0,0 STARLINK-5151,1 54066U 22136R   22357.95678983  .00002616  00000-0  18241-3 0  9993,2 54066  53.2167 204.1231 0001812  67.7332 292.3852 15.08835106 10436,6917.895,95.438,541.014,538.507,0.0
54066.0,STARLINK-5151,PAYLOAD,2022-12-24 06:54:41,15.08865369,0.0002015,53.2167,202.6362,56.2408,303.8776,-0.00020365,-3.53e-05,0.0,0 STARLINK-5151,1 54066U 22136R   22358.28797734 -.00003530  00000-0 -20365-3 0  9994,2 54066  53.2167 202.6362 0002015  56.2408 303.8776 15.08865369 10489,6917.803000000001,95.436,541.062,538.274,0.0
54066.0,STARLINK-5151,PAYLOAD,2022-12-24 13:16:14,15.08841653,0.0001706999999999,53.2169,201.4466,59.7811,300.335,0.00023073,3.386e-05,0.0,0 STARLINK-5151,1 54066U 22136R   22358.55294791  .00003386  00000-0  23073-3 0  9995,2 54066  53.2169 201.4466 0001707  59.7811 300.3350 15.08841653 10521,6917.875,95.437,540.9209999999998,538.559,0.0
54066.0,STARLINK-5151,PAYLOAD,2022-12-24 21:13:10,15.08849776,0.0001763,53.2157,199.96,59.6164,300.5002,0.00027138,4.035e-05,0.0,0 STARLINK-5151,1 54066U 22136R   22358.88414536  .00004035  00000-0  27138-3 0  9990,2 54066  53.2157 199.9600 0001763  59.6164 300.5002 15.08849776 10093,6917.851,95.437,540.935,538.496,0.0
54066.0,STARLINK-5151,PAYLOAD,2022-12-25 06:45:28,15.08850879,0.0001819,53.215,198.1756,58.3718,301.7452,0.00020571,2.988e-05,0.0,0 STARLINK-5151,1 54066U 22136R   22359.28158282  .00002988  00000-0  20571-3 0  9997,2 54066  53.2150 198.1756 0001819  58.3718 301.7452 15.08850879 10157,6917.847,95.437,540.97,538.4540000000002,0.0
54066.0,STARLINK-5151,PAYLOAD,2022-12-25 19:28:34,15.08839481,0.0001822,53.2155,195.7967,60.441,299.6764,5.3589e-05,5.65e-06,0.0,0 STARLINK-5151,1 54066U 22136R   22359.81150759  .00000565  00000-0  53589-4 0  9992,2 54066  53.2155 195.7967 0001822  60.4410 299.6764 15.08839481 10715,6917.882,95.438,541.007,538.487,0.0
54066.0,STARLINK-5151,PAYLOAD,2022-12-26 08:11:38,15.08846574,0.0001916,53.2155,193.4177,58.0604,302.0574,-5.0119e-05,-1.086e-05,0.0,0 STARLINK-5151,1 54066U 22136R   22360.34142285 -.00001086  00000-0 -50119-4 0  9994,2 54066  53.2155 193.4177 0001916  58.0604 302.0574 15.08846574 10310,6917.86,95.437,541.0509999999998,538.4,0.0
54066.0,STARLINK-5151,PAYLOAD,2022-12-26 14:33:11,15.08842445,0.0001774,53.2164,192.228,62.222,297.8951,0.00010652,1.408e-05,0.0,0 STARLINK-5151,1 54066U 22136R   22360.60638555  .00001408  00000-0  10652-3 0  9996,2 54066  53.2164 192.2280 0001774  62.2220 297.8951 15.08842445 10352,6917.873000000001,95.437,540.965,538.511,0.0
54066.0,STARLINK-5151,PAYLOAD,2022-12-26 22:30:06,15.08850459,0.0001710999999999,53.2165,190.7411,61.6673,298.4491,5.4274e-05,5.76e-06,0.0,0 STARLINK-5151,1 54066U 22136R   22360.93758007  .00000576  00000-0  54274-4 0  9991,2 54066  53.2165 190.7411 0001711  61.6673 298.4491 15.08850459 10886,6917.848000000001,95.437,540.8969999999998,538.53,0.0
54066.0,STARLINK-5151,PAYLOAD,2022-12-27 12:48:37,15.0878467,0.0001555,53.2163,188.0653,80.8085,279.3083,0.0012388,0.00019453,0.0,0 STARLINK-5151,1 54066U 22136R   22361.53376688  .00019453  00000-0  12388-2 0  9991,2 54066  53.2163 188.0653 0001555  80.8085 279.3083 15.08784670 10974,6918.05,95.441,540.99,538.839,0.0
54066.0,STARLINK-5151,PAYLOAD,2022-12-27 19:10:07,15.08852573,0.0001803,53.2154,186.8754,60.0704,300.0467,0.00027427,4.081e-05,0.0,0 STARLINK-5151,1 54066U 22136R   22361.79869639  .00004081  00000-0  27427-3 0  9994,2 54066  53.2154 186.8754 0001803  60.0704 300.0467 15.08852573 10534,6917.842,95.437,540.9540000000002,538.46,0.0
54066.0,STARLINK-5151,PAYLOAD,2022-12-28 12:39:22,15.08840171,0.0001817,53.2153,183.6042,61.721,298.3965,1.0274e-05,-1.25e-06,0.0,0 STARLINK-5151,1 54066U 22136R   22362.52734025 -.00000125  00000-0  10274-4 0  9995,2 54066  53.2153 183.6042 0001817  61.7210 298.3965 15.08840171 10648,6917.88,95.438,541.002,538.488,0.0
54066.0,STARLINK-5151,PAYLOAD,2022-12-28 15:50:08,15.08841308,0.0001833,53.2152,183.0093,62.2221,297.8957,1.9583e-05,2.4e-07,0.0,0 STARLINK-5151,1 54066U 22136R   22362.65981930  .00000024  00000-0  19583-4 0  9997,2 54066  53.2152 183.0093 0001833  62.2221 297.8957 15.08841308 10663,6917.876,95.437,541.009,538.4730000000002,0.0
54066.0,STARLINK-5151,PAYLOAD,2022-12-29 12:30:09,15.08841907,0.0001729,53.2161,179.1435,61.0341,299.0824,2.6313e-06,-2.46e-06,0.0,0 STARLINK-5151,1 54066U 22136R   22363.52093961 -.00000246  00000-0  26313-5 0  9999,2 54066  53.2161 179.1435 0001729  61.0341 299.0824 15.08841907 10799,6917.875,95.437,540.936,538.543,0.0
54066.0,STARLINK-5151,PAYLOAD,2022-12-29 20:27:05,15.08834581,0.0001717,53.2165,177.6568,60.2085,299.9078,-5.8093e-05,-1.212e-05,0.0,0 STARLINK-5151,1 54066U 22136R   22363.85214602 -.00001212  00000-0 -58093-4 0  9996,2 54066  53.2165 177.6568 0001717  60.2085 299.9078 15.08834581 11326,6917.897,95.438,540.95,538.5740000000002,0.0
54066.0,STARLINK-5151,PAYLOAD,2022-12-30 07:34:47,15.08831392,0.000175,53.2166,175.5751,62.6812,297.4358,2.0779e-05,4.3e-07,0.0,0 STARLINK-5151,1 54066U 22136R   22364.31582782  .00000043  00000-0  20779-4 0  9994,2 54066  53.2166 175.5751 0001750  62.6812 297.4358 15.08831392 10914,6917.906999999997,95.438,540.982,538.561,0.0
54066.0,STARLINK-5151,PAYLOAD,2022-12-31 10:36:20,15.08840852,0.0001706,53.2168,170.5198,55.0589,305.0563,0.00011668,1.569e-05,0.0,0 STARLINK-5151,1 54066U 22136R   22365.44190207  .00001569  00000-0  11668-3 0  9996,2 54066  53.2168 170.5198 0001706  55.0589 305.0563 15.08840852 11561,6917.878000000002,95.438,540.923,538.563,0.0
54066.0,STARLINK-5151,PAYLOAD,2022-12-31 16:57:52,15.08844704,0.0001712,53.2168,169.3305,57.2528,302.8629,0.00017481,2.495e-05,0.0,0 STARLINK-5151,1 54066U 22136R   22365.70685880  .00002495  00000-0  17481-3 0  9999,2 54066  53.2168 169.3305 0001712  57.2528 302.8629 15.08844704 11121,6917.866,95.437,540.915,538.547,0.0
54066.0,STARLINK-5151,PAYLOAD,2023-01-01 10:27:07,15.08843748,0.0001797,53.2157,166.0598,56.396,303.7204,0.0001308,1.794e-05,0.0,0 STARLINK-5151,1 54066U 22136R   23001.43550051  .00001794  00000-0  13080-3 0  9990,2 54066  53.2157 166.0598 0001797  56.3960 303.7204 15.08843748 11238,6917.869000000002,95.437,540.977,538.491,0.0
54066.0,STARLINK-5151,PAYLOAD,2023-01-01 18:24:03,15.08836122,0.0001739,53.2161,164.5748,48.8198,311.2943,-2.389300000000001e-05,-6.68e-06,0.0,0 STARLINK-5151,1 54066U 22136R   23001.76670351 -.00000668  00000-0 -23893-4 0  9997,2 54066  53.2161 164.5748 0001739  48.8198 311.2943 15.08836122 11285,6917.892,95.438,540.96,538.554,0.0
54066.0,STARLINK-5151,PAYLOAD,2023-01-02 13:28:41,15.08841875,0.0001906,53.2172,161.0057,53.1748,306.9419,-3.7413e-06,-3.48e-06,0.0,0 STARLINK-5151,1 54066U 22136R   23002.56158614 -.00000348  00000-0 -37413-5 0  9998,2 54066  53.2172 161.0057 0001906  53.1748 306.9419 15.08841875 11402,6917.875,95.437,541.058,538.4209999999998,0.0
54066.0,STARLINK-5151,PAYLOAD,2023-01-02 18:14:50,15.08848597,0.0001811999999999,53.2171,160.1134,57.1598,302.9568,-4.513100000000001e-05,-1.007e-05,0.0,0 STARLINK-5151,1 54066U 22136R   23002.76030176 -.00001007  00000-0 -45131-4 0  9990,2 54066  53.2171 160.1134 0001812  57.1598 302.9568 15.08848597 11915,6917.854,95.437,540.9730000000002,538.466,0.0
54066.0,STARLINK-5151,PAYLOAD,2023-01-03 10:08:41,15.08844711,0.000181,53.2174,157.1405,56.8248,303.2918,3.8929e-05,3.32e-06,0.0,0 STARLINK-5151,1 54066U 22136R   23003.42270036  .00000332  00000-0  38929-4 0  9990,2 54066  53.2174 157.1405 0001810  56.8248 303.2918 15.08844711 11536,6917.866,95.437,540.9830000000002,538.479,0.0
54066.0,STARLINK-5151,PAYLOAD,2023-01-03 16:30:14,15.08843455,0.0001864,53.2174,155.9507,57.5285,302.5888,-4.0089e-05,-9.26e-06,0.0,0 STARLINK-5151,1 54066U 22136R   23003.68766275 -.00000926  00000-0 -40089-4 0  9994,2 54066  53.2174 155.9507 0001864  57.5285 302.5888 15.08843455 12053,6917.87,95.437,541.024,538.445,0.0
54066.0,STARLINK-5151,PAYLOAD,2023-01-03 19:41:00,15.08847181,0.0001841,53.2175,155.356,61.779,298.3388,-9.5559e-05,-1.809e-05,0.0,0 STARLINK-5151,1 54066U 22136R   23003.82014187 -.00001809  00000-0 -95559-4 0  9991,2 54066  53.2175 155.3560 0001841  61.7790 298.3388 15.08847181 11595,6917.858,95.437,540.997,538.45,0.0
